{
  "type": "FeatureCollection",
  "features": [
    {
      "type": "Feature",
      "properties": {
        "norad_id": 52912,
        "name": "GAOFEN-12 03",
        "group": "resource",
        "lat": -80.79616217285319,
        "lon": -53.08945481793835,
        "alt_km": 638.5656046011854,
        "timestamp": "2025-12-27T13:34:48.947608+00:00",
        "meta_object_name": "GAOFEN-12 03",
        "meta_object_id": "2022-069A",
        "meta_epoch": "2025-12-27T05:50:59.226720",
        "meta_mean_motion": 14.79643454,
        "meta_eccentricity": 0.00017103,
        "meta_inclination": 97.8473,
        "meta_ra_of_asc_node": 248.2576,
        "meta_arg_of_pericenter": 45.4878,
        "meta_mean_anomaly": 314.6473,
        "meta_ephemeris_type": 0,
        "meta_classification_type": "U",
        "meta_norad_cat_id": 52912,
        "meta_element_set_no": 999,
        "meta_rev_at_epoch": 18918,
        "meta_bstar": 0.00018524487,
        "meta_mean_motion_dot": 1.339e-05,
        "meta_mean_motion_ddot": 0,
        "tle_line1": "1 52912U 22069A   25361.24374105  .00001339  00000+0  18524-3 0  9999",
        "tle_line2": "2 52912  97.8473 248.2576 0001710  45.4878 314.6473 14.79643454189180"
      },
      "geometry": {
        "type": "Point",
        "coordinates": [
          -53.08945481793835,
          -80.79616217285319
        ]
      }
    },
    {
      "type": "Feature",
      "properties": {
        "norad_id": 54754,
        "name": "SWOT",
        "group": "resource",
        "lat": -18.06828320235792,
        "lon": -97.13523617316105,
        "alt_km": 898.026832812614,
        "timestamp": "2025-12-27T13:34:48.947618+00:00",
        "meta_object_name": "SWOT",
        "meta_object_id": "2022-173A",
        "meta_epoch": "2025-12-27T05:05:38.242752",
        "meta_mean_motion": 14.0016915,
        "meta_eccentricity": 4.285e-05,
        "meta_inclination": 77.6106,
        "meta_ra_of_asc_node": 267.4541,
        "meta_arg_of_pericenter": 79.9961,
        "meta_mean_anomaly": 280.1239,
        "meta_ephemeris_type": 0,
        "meta_classification_type": "U",
        "meta_norad_cat_id": 54754,
        "meta_element_set_no": 999,
        "meta_rev_at_epoch": 15508,
        "meta_bstar": 9.3658896e-05,
        "meta_mean_motion_dot": 1.36e-06,
        "meta_mean_motion_ddot": 0,
        "tle_line1": "1 54754U 22173A   25361.21224818  .00000136  00000+0  93659-4 0  9990",
        "tle_line2": "2 54754  77.6106 267.4541 0000428  79.9961 280.1239 14.00169150155089"
      },
      "geometry": {
        "type": "Point",
        "coordinates": [
          -97.13523617316105,
          -18.06828320235792
        ]
      }
    },
    {
      "type": "Feature",
      "properties": {
        "norad_id": 57654,
        "name": "GAOFEN-12 04",
        "group": "resource",
        "lat": 82.07077998431494,
        "lon": -169.8549204453323,
        "alt_km": 621.8434389894228,
        "timestamp": "2025-12-27T13:34:48.947628+00:00",
        "meta_object_name": "GAOFEN-12 04",
        "meta_object_id": "2023-123A",
        "meta_epoch": "2025-12-27T06:41:07.745568",
        "meta_mean_motion": 14.79742759,
        "meta_eccentricity": 0.00011904,
        "meta_inclination": 97.9129,
        "meta_ra_of_asc_node": 276.816,
        "meta_arg_of_pericenter": 81.0465,
        "meta_mean_anomaly": 279.0882,
        "meta_ephemeris_type": 0,
        "meta_classification_type": "U",
        "meta_norad_cat_id": 57654,
        "meta_element_set_no": 999,
        "meta_rev_at_epoch": 12720,
        "meta_bstar": 0.00022236587,
        "meta_mean_motion_dot": 1.62e-05,
        "meta_mean_motion_ddot": 0,
        "tle_line1": "1 57654U 23123A   25361.27856187  .00001620  00000+0  22237-3 0  9996",
        "tle_line2": "2 57654  97.9129 276.8160 0001190  81.0465 279.0882 14.79742759127204"
      },
      "geometry": {
        "type": "Point",
        "coordinates": [
          -169.8549204453323,
          82.07077998431494
        ]
      }
    },
    {
      "type": "Feature",
      "properties": {
        "norad_id": 59065,
        "name": "PARS 1",
        "group": "resource",
        "lat": 20.62691590706859,
        "lon": 155.64706686476987,
        "alt_km": 447.50652055748196,
        "timestamp": "2025-12-27T13:34:48.947638+00:00",
        "meta_object_name": "PARS 1",
        "meta_object_id": "2024-039Q",
        "meta_epoch": "2025-12-27T06:39:37.707264",
        "meta_mean_motion": 15.41312112,
        "meta_eccentricity": 0.00112726,
        "meta_inclination": 97.4655,
        "meta_ra_of_asc_node": 332.5231,
        "meta_arg_of_pericenter": 27.4059,
        "meta_mean_anomaly": 332.778,
        "meta_ephemeris_type": 0,
        "meta_classification_type": "U",
        "meta_norad_cat_id": 59065,
        "meta_element_set_no": 999,
        "meta_rev_at_epoch": 10212,
        "meta_bstar": 0.00032871307,
        "meta_mean_motion_dot": 0.00013644,
        "meta_mean_motion_ddot": 0,
        "tle_line1": "1 59065U 24039Q   25361.27751976  .00013644  00000+0  32871-3 0  9995",
        "tle_line2": "2 59065  97.4655 332.5231 0011272  27.4059 332.7780 15.41312112102129"
      },
      "geometry": {
        "type": "Point",
        "coordinates": [
          155.64706686476987,
          20.62691590706859
        ]
      }
    },
    {
      "type": "Feature",
      "properties": {
        "norad_id": 59371,
        "name": "RESURS-P 4",
        "group": "resource",
        "lat": -1.611317380066874,
        "lon": 127.3891774110729,
        "alt_km": 472.49542768495394,
        "timestamp": "2025-12-27T13:34:48.947648+00:00",
        "meta_object_name": "RESURS-P 4",
        "meta_object_id": "2024-061A",
        "meta_epoch": "2025-12-27T06:31:16.214016",
        "meta_mean_motion": 15.32214889,
        "meta_eccentricity": 8.094e-05,
        "meta_inclination": 97.2562,
        "meta_ra_of_asc_node": 307.3063,
        "meta_arg_of_pericenter": 94.7089,
        "meta_mean_anomaly": 265.4246,
        "meta_ephemeris_type": 0,
        "meta_classification_type": "U",
        "meta_norad_cat_id": 59371,
        "meta_element_set_no": 999,
        "meta_rev_at_epoch": 9743,
        "meta_bstar": 0.00015154523,
        "meta_mean_motion_dot": 4.637e-05,
        "meta_mean_motion_ddot": 0,
        "tle_line1": "1 59371U 24061A   25361.27171544  .00004637  00000+0  15155-3 0  9995",
        "tle_line2": "2 59371  97.2562 307.3063 0000809  94.7089 265.4246 15.32214889 97439"
      },
      "geometry": {
        "type": "Point",
        "coordinates": [
          127.3891774110729,
          -1.611317380066874
        ]
      }
    },
    {
      "type": "Feature",
      "properties": {
        "norad_id": 59625,
        "name": "LEGION 1",
        "group": "resource",
        "lat": -63.300205825411865,
        "lon": 91.30340474051395,
        "alt_km": 521.5488079320085,
        "timestamp": "2025-12-27T13:34:48.947658+00:00",
        "meta_object_name": "LEGION 1",
        "meta_object_id": "2024-081A",
        "meta_epoch": "2025-12-27T05:56:45.717504",
        "meta_mean_motion": 15.16623254,
        "meta_eccentricity": 0.00036793,
        "meta_inclination": 97.5192,
        "meta_ra_of_asc_node": 75.7622,
        "meta_arg_of_pericenter": 249.4941,
        "meta_mean_anomaly": 110.5897,
        "meta_ephemeris_type": 0,
        "meta_classification_type": "U",
        "meta_norad_cat_id": 59625,
        "meta_element_set_no": 999,
        "meta_rev_at_epoch": 9147,
        "meta_bstar": 0.00028120876,
        "meta_mean_motion_dot": 5.431e-05,
        "meta_mean_motion_ddot": 0,
        "tle_line1": "1 59625U 24081A   25361.24775136  .00005431  00000+0  28121-3 0  9993",
        "tle_line2": "2 59625  97.5192  75.7622 0003679 249.4941 110.5897 15.16623254 91476"
      },
      "geometry": {
        "type": "Point",
        "coordinates": [
          91.30340474051395,
          -63.300205825411865
        ]
      }
    },
    {
      "type": "Feature",
      "properties": {
        "norad_id": 59626,
        "name": "LEGION 2",
        "group": "resource",
        "lat": 62.84713816285449,
        "lon": -88.90970774544044,
        "alt_km": 511.52928706455987,
        "timestamp": "2025-12-27T13:34:48.947668+00:00",
        "meta_object_name": "LEGION 2",
        "meta_object_id": "2024-081B",
        "meta_epoch": "2025-12-27T06:44:08.765664",
        "meta_mean_motion": 15.16638845,
        "meta_eccentricity": 0.00058457,
        "meta_inclination": 97.5197,
        "meta_ra_of_asc_node": 75.8829,
        "meta_arg_of_pericenter": 231.0007,
        "meta_mean_anomaly": 129.0706,
        "meta_ephemeris_type": 0,
        "meta_classification_type": "U",
        "meta_norad_cat_id": 59626,
        "meta_element_set_no": 999,
        "meta_rev_at_epoch": 9148,
        "meta_bstar": 0.00030197841,
        "meta_mean_motion_dot": 5.841e-05,
        "meta_mean_motion_ddot": 0,
        "tle_line1": "1 59626U 24081B   25361.28065701  .00005841  00000+0  30198-3 0  9990",
        "tle_line2": "2 59626  97.5197  75.8829 0005845 231.0007 129.0706 15.16638845 91486"
      },
      "geometry": {
        "type": "Point",
        "coordinates": [
          -88.90970774544044,
          62.84713816285449
        ]
      }
    }
  ]
}